[{"OBJECT_NAME":"FLOCK 4BE-6","OBJECT_ID":"2024-149BA","EPOCH":"2026-03-09T10:55:08.664960","MEAN_MOTION":15.36615485,"ECCENTRICITY":0.0002253,"INCLINATION":97.3824,"RA_OF_ASC_NODE":151.5086,"ARG_OF_PERICENTER":289.6098,"MEAN_ANOMALY":70.4903,"EPHEMERIS_TYPE":0,"CLASSIFICATION_TYPE":"U","NORAD_CAT_ID":60516,"ELEMENT_SET_NO":999,"REV_AT_EPOCH":8694,"BSTAR":0.00048320251,"MEAN_MOTION_DOT":0.00017212,"MEAN_MOTION_DDOT":0},{"OBJECT_NAME":"SL-12 R\/B(AUX MOTOR)","OBJECT_ID":"2010-041G","EPOCH":"2026-03-09T13:00:28.817280","MEAN_MOTION":8.77287771,"ECCENTRICITY":0.32964681,"INCLINATION":64.4404,"RA_OF_ASC_NODE":286.217,"ARG_OF_PERICENTER":285.0973,"MEAN_ANOMALY":41.2978,"EPHEMERIS_TYPE":0,"CLASSIFICATION_TYPE":"U","NORAD_CAT_ID":37143,"ELEMENT_SET_NO":999,"REV_AT_EPOCH":27327,"BSTAR":0.0043564678,"MEAN_MOTION_DOT":0.00085123,"MEAN_MOTION_DDOT":0}]
